{"type": "FeatureCollection", "features": [ {"type": "Feature", "properties": {"norad_id": 66678, "name": "TRANSPORTER-15N", "group": "last-30-days", "lat": 72.74512957891902, "lon": -82.18722575903527, "alt_km": 507.64915643691165, "timestamp": "2025-12-27T11:23:18.578007+00:00", "meta": {"OBJECT_NAME": "TRANSPORTER-15N", "OBJECT_ID": "2025-276N", "EPOCH": "2025-12-27T04:35:30.238080", "MEAN_MOTION": 15.16778811, "ECCENTRICITY": 0.0005339, "INCLINATION": 97.4381, "RA_OF_ASC_NODE": 72.6614, "ARG_OF_PERICENTER": 34.2642, "MEAN_ANOMALY": 325.8935, "EPHEMERIS_TYPE": 0, "CLASSIFICATION_TYPE": "U", "NORAD_CAT_ID": 66678, "ELEMENT_SET_NO": 999, "REV_AT_EPOCH": 431, "BSTAR": -0.0048913, "MEAN_MOTION_DOT": -0.00094833, "MEAN_MOTION_DDOT": 0}, "tle": {"line1": "1 66678U 25276N   25361.19132220 -.00094833  00000+0 -48913-2 0  9997", "line2": "2 66678  97.4381  72.6614 0005339  34.2642 325.8935 15.16778811  4312"}}, "geometry": {"type": "Point", "coordinates": [-82.18722575903527, 72.74512957891902]}}, {"type": "Feature", "properties": {"norad_id": 66679, "name": "TRANSPORTER-15P", "group": "last-30-days", "lat": 80.77356849055006, "lon": -53.54943583281676, "alt_km": 510.90272818514677, "timestamp": "2025-12-27T11:23:18.578020+00:00", "meta": {"OBJECT_NAME": "TRANSPORTER-15P", "OBJECT_ID": "2025-276P", "EPOCH": "2025-12-27T04:38:07.435104", "MEAN_MOTION": 15.16730766, "ECCENTRICITY": 0.0004778, "INCLINATION": 97.4358, "RA_OF_ASC_NODE": 72.6589, "ARG_OF_PERICENTER": 238.2223, "MEAN_ANOMALY": 121.8545, "EPHEMERIS_TYPE": 0, "CLASSIFICATION_TYPE": "U", "NORAD_CAT_ID": 66679, "ELEMENT_SET_NO": 999, "REV_AT_EPOCH": 431, "BSTAR": 0.00022335, "MEAN_MOTION_DOT": 4.314e-05, "MEAN_MOTION_DDOT": 0}, "tle": {"line1": "1 66679U 25276P   25361.19314161  .00004314  00000+0  22335-3 0  9998", "line2": "2 66679  97.4358  72.6589 0004778 238.2223 121.8545 15.16730766  4313"}}, "geometry": {"type": "Point", "coordinates": [-53.54943583281676, 80.77356849055006]}}, {"type": "Feature", "properties": {"norad_id": 66680, "name": "TRANSPORTER-15Q", "group": "last-30-days", "lat": 72.48839664639954, "lon": -82.57557701716114, "alt_km": 509.9720511871219, "timestamp": "2025-12-27T11:23:18.578030+00:00", "meta": {"OBJECT_NAME": "TRANSPORTER-15Q", "OBJECT_ID": "2025-276Q", "EPOCH": "2025-12-27T04:35:25.199232", "MEAN_MOTION": 15.1689381, "ECCENTRICITY": 0.0004915, "INCLINATION": 97.4406, "RA_OF_ASC_NODE": 72.6775, "ARG_OF_PERICENTER": 227.0286, "MEAN_ANOMALY": 133.0536, "EPHEMERIS_TYPE": 0, "CLASSIFICATION_TYPE": "U", "NORAD_CAT_ID": 66680, "ELEMENT_SET_NO": 999, "REV_AT_EPOCH": 431, "BSTAR": 0.00047009, "MEAN_MOTION_DOT": 9.202e-05, "MEAN_MOTION_DDOT": 0}, "tle": {"line1": "1 66680U 25276Q   25361.19126388  .00009202  00000+0  47009-3 0  9998", "line2": "2 66680  97.4406  72.6775 0004915 227.0286 133.0536 15.16893810  4319"}}, "geometry": {"type": "Point", "coordinates": [-82.57557701716114, 72.48839664639954]}}, {"type": "Feature", "properties": {"norad_id": 66681, "name": "TRANSPORTER-15R", "group": "last-30-days", "lat": 35.07433570162391, "lon": -101.79608363472556, "alt_km": 512.0182819930005, "timestamp": "2025-12-27T11:23:18.578040+00:00", "meta": {"OBJECT_NAME": "TRANSPORTER-15R", "OBJECT_ID": "2025-276R", "EPOCH": "2025-12-27T04:25:25.231584", "MEAN_MOTION": 15.17605881, "ECCENTRICITY": 0.0004912, "INCLINATION": 97.4329, "RA_OF_ASC_NODE": 72.6596, "ARG_OF_PERICENTER": 256.9865, "MEAN_ANOMALY": 103.082, "EPHEMERIS_TYPE": 0, "CLASSIFICATION_TYPE": "U", "NORAD_CAT_ID": 66681, "ELEMENT_SET_NO": 999, "REV_AT_EPOCH": 431, "BSTAR": 0.00097522, "MEAN_MOTION_DOT": 0.00019582, "MEAN_MOTION_DDOT": 0}, "tle": {"line1": "1 66681U 25276R   25361.18431981  .00019582  00000+0  97522-3 0  9993", "line2": "2 66681  97.4329  72.6596 0004912 256.9865 103.0820 15.17605881  4319"}}, "geometry": {"type": "Point", "coordinates": [-101.79608363472556, 35.07433570162391]}}, {"type": "Feature", "properties": {"norad_id": 66682, "name": "TRANSPORTER-15S", "group": "last-30-days", "lat": 81.58667923235426, "lon": -45.04914246709354, "alt_km": 510.5402241083675, "timestamp": "2025-12-27T11:23:18.578050+00:00", "meta": {"OBJECT_NAME": "TRANSPORTER-15S", "OBJECT_ID": "2025-276S", "EPOCH": "2025-12-26T23:51:45.550944", "MEAN_MOTION": 15.13006162, "ECCENTRICITY": 0.0016564, "INCLINATION": 97.4342, "RA_OF_ASC_NODE": 72.4972, "ARG_OF_PERICENTER": 119.3207, "MEAN_ANOMALY": 240.9682, "EPHEMERIS_TYPE": 0, "CLASSIFICATION_TYPE": "U", "NORAD_CAT_ID": 66682, "ELEMENT_SET_NO": 999, "REV_AT_EPOCH": 428, "BSTAR": -0.028772, "MEAN_MOTION_DOT": -0.00477853, "MEAN_MOTION_DDOT": 0}, "tle": {"line1": "1 66682U 25276S   25360.99427721 -.00477853  00000+0 -28772-1 0  9999", "line2": "2 66682  97.4342  72.4972 0016564 119.3207 240.9682 15.13006162  4285"}}, "geometry": {"type": "Point", "coordinates": [-45.04914246709354, 81.58667923235426]}}, {"type": "Feature", "properties": {"norad_id": 66683, "name": "TRANSPORTER-15T", "group": "last-30-days", "lat": 59.414463163392305, "lon": -94.2442407233999, "alt_km": 509.6253399036559, "timestamp": "2025-12-27T11:23:18.578060+00:00", "meta": {"OBJECT_NAME": "TRANSPORTER-15T", "OBJECT_ID": "2025-276T", "EPOCH": "2025-12-27T04:31:49.226016", "MEAN_MOTION": 15.17079723, "ECCENTRICITY": 0.0004901, "INCLINATION": 97.4443, "RA_OF_ASC_NODE": 72.6943, "ARG_OF_PERICENTER": 222.4698, "MEAN_ANOMALY": 137.6157, "EPHEMERIS_TYPE": 0, "CLASSIFICATION_TYPE": "U", "NORAD_CAT_ID": 66683, "ELEMENT_SET_NO": 999, "REV_AT_EPOCH": 431, "BSTAR": 0.00048899, "MEAN_MOTION_DOT": 9.626e-05, "MEAN_MOTION_DDOT": 0}, "tle": {"line1": "1 66683U 25276T   25361.18876419  .00009626  00000+0  48899-3 0  9995", "line2": "2 66683  97.4443  72.6943 0004901 222.4698 137.6157 15.17079723  4310"}}, "geometry": {"type": "Point", "coordinates": [-94.2442407233999, 59.414463163392305]}}, {"type": "Feature", "properties": {"norad_id": 66684, "name": "TRANSPORTER-15U", "group": "last-30-days", "lat": 37.3080447805524, "lon": -101.28642667556046, "alt_km": 510.29266664326224, "timestamp": "2025-12-27T11:23:18.578095+00:00", "meta": {"OBJECT_NAME": "TRANSPORTER-15U", "OBJECT_ID": "2025-276U", "EPOCH": "2025-12-27T04:25:58.410912", "MEAN_MOTION": 15.174306, "ECCENTRICITY": 0.0004694, "INCLINATION": 97.4467, "RA_OF_ASC_NODE": 72.7085, "ARG_OF_PERICENTER": 221.2792, "MEAN_ANOMALY": 138.8087, "EPHEMERIS_TYPE": 0, "CLASSIFICATION_TYPE": "U", "NORAD_CAT_ID": 66684, "ELEMENT_SET_NO": 999, "REV_AT_EPOCH": 431, "BSTAR": 0.0007234, "MEAN_MOTION_DOT": 0.00014425, "MEAN_MOTION_DDOT": 0}, "tle": {"line1": "1 66684U 25276U   25361.18470383  .00014425  00000+0  72340-3 0  9997", "line2": "2 66684  97.4467  72.7085 0004694 221.2792 138.8087 15.17430600  4316"}}, "geometry": {"type": "Point", "coordinates": [-101.28642667556046, 37.3080447805524]}}, {"type": "Feature", "properties": {"norad_id": 66685, "name": "TRANSPORTER-15V", "group": "last-30-days", "lat": 16.858113028930052, "lon": -104.74249496472484, "alt_km": 496.61223211736524, "timestamp": "2025-12-27T11:23:18.578107+00:00", "meta": {"OBJECT_NAME": "TRANSPORTER-15V", "OBJECT_ID": "2025-276V", "EPOCH": "2025-12-27T02:47:35.884320", "MEAN_MOTION": 15.21953501, "ECCENTRICITY": 0.0008559, "INCLINATION": 97.4444, "RA_OF_ASC_NODE": 72.6316, "ARG_OF_PERICENTER": 36.5472, "MEAN_ANOMALY": 323.6347, "EPHEMERIS_TYPE": 0, "CLASSIFICATION_TYPE": "U", "NORAD_CAT_ID": 66685, "ELEMENT_SET_NO": 999, "REV_AT_EPOCH": 430, "BSTAR": 0.15372, "MEAN_MOTION_DOT": 0.03971994, "MEAN_MOTION_DDOT": 0}, "tle": {"line1": "1 66685U 25276V   25361.11638755  .03971994  00000+0  15372+0 0  9994", "line2": "2 66685  97.4444  72.6316 0008559  36.5472 323.6347 15.21953501  4301"}}, "geometry": {"type": "Point", "coordinates": [-104.74249496472484, 16.858113028930052]}}, {"type": "Feature", "properties": {"norad_id": 66686, "name": "TRANSPORTER-15W", "group": "last-30-days", "lat": 55.28103952596364, "lon": -96.14486826681328, "alt_km": 509.7914758954412, "timestamp": "2025-12-27T11:23:18.578117+00:00", "meta": {"OBJECT_NAME": "TRANSPORTER-15W", "OBJECT_ID": "2025-276W", "EPOCH": "2025-12-27T04:30:41.999040", "MEAN_MOTION": 15.17073945, "ECCENTRICITY": 0.0004379, "INCLINATION": 97.4444, "RA_OF_ASC_NODE": 72.6966, "ARG_OF_PERICENTER": 221.4396, "MEAN_ANOMALY": 138.6506, "EPHEMERIS_TYPE": 0, "CLASSIFICATION_TYPE": "U", "NORAD_CAT_ID": 66686, "ELEMENT_SET_NO": 999, "REV_AT_EPOCH": 431, "BSTAR": 0.00059362, "MEAN_MOTION_DOT": 0.000117, "MEAN_MOTION_DDOT": 0}, "tle": {"line1": "1 66686U 25276W   25361.18798610  .00011700  00000+0  59362-3 0  9997", "line2": "2 66686  97.4444  72.6966 0004379 221.4396 138.6506 15.17073945  4311"}}, "geometry": {"type": "Point", "coordinates": [-96.14486826681328, 55.28103952596364]}}, {"type": "Feature", "properties": {"norad_id": 66687, "name": "TRANSPORTER-15X", "group": "last-30-days", "lat": 82.5528686531357, "lon": -18.856508328618194, "alt_km": 504.4516806551874, "timestamp": "2025-12-27T11:23:18.578131+00:00", "meta": {"OBJECT_NAME": "TRANSPORTER-15X", "OBJECT_ID": "2025-276X", "EPOCH": "2025-12-27T04:39:35.069760", "MEAN_MOTION": 15.16821541, "ECCENTRICITY": 0.0008087, "INCLINATION": 97.4384, "RA_OF_ASC_NODE": 72.6637, "ARG_OF_PERICENTER": 40.1556, "MEAN_ANOMALY": 320.0274, "EPHEMERIS_TYPE": 0, "CLASSIFICATION_TYPE": "U", "NORAD_CAT_ID": 66687, "ELEMENT_SET_NO": 999, "REV_AT_EPOCH": 431, "BSTAR": 0.00078015, "MEAN_MOTION_DOT": 0.00015303, "MEAN_MOTION_DDOT": 0}, "tle": {"line1": "1 66687U 25276X   25361.19415590  .00015303  00000+0  78015-3 0  9991", "line2": "2 66687  97.4384  72.6637 0008087  40.1556 320.0274 15.16821541  4315"}}, "geometry": {"type": "Point", "coordinates": [-18.856508328618194, 82.5528686531357]}}]}